{
  "norad_id": 57412,
  "name": "STARLINK-30182",
  "history": [
    {
      "epoch": "2026-04-17T11:39:48.493152Z",
      "apogee_km": 486.2339195854811,
      "perigee_km": 484.8916544551321,
      "latitude_deg": 9.365057206161243e-06,
      "longitude_deg": 8.875810856467021,
      "height_km": 485.4511586490166,
      "semi_major_axis_km": 6863.699787020307,
      "eccentricity": 9.778e-05,
      "inclination_deg": 43.0027,
      "raan_deg": 29.4465,
      "arg_perigee_deg": 260.4214,
      "mean_anomaly_deg": 99.6527,
      "mean_motion_rev_day": 15.26740909
    },
    {
      "epoch": "2026-04-18T03:21:53.259264Z",
      "apogee_km": 486.4488672647376,
      "perigee_km": 484.6836600593888,
      "latitude_deg": -2.399882691380939e-05,
      "longitude_deg": 129.02018661338303,
      "height_km": 485.49966985495786,
      "semi_major_axis_km": 6863.703263662062,
      "eccentricity": 0.00012859,
      "inclination_deg": 43.0037,
      "raan_deg": 25.7556,
      "arg_perigee_deg": 259.797,
      "mean_anomaly_deg": 100.2736,
      "mean_motion_rev_day": 15.26739749
    },
    {
      "epoch": "2026-04-19T10:46:01.687296Z",
      "apogee_km": 485.728611408641,
      "perigee_km": 485.31981174687917,
      "latitude_deg": 2.2020349054008133e-05,
      "longitude_deg": 9.313569991698854,
      "height_km": 485.4276884108116,
      "semi_major_axis_km": 6863.66121157776,
      "eccentricity": 2.978e-05,
      "inclination_deg": 42.9998,
      "raan_deg": 18.3737,
      "arg_perigee_deg": 231.301,
      "mean_anomaly_deg": 128.7815,
      "mean_motion_rev_day": 15.2675378
    },
    {
      "epoch": "2026-04-20T10:18:28.266912Z",
      "apogee_km": 485.23640739515395,
      "perigee_km": 483.3156179929001,
      "latitude_deg": 3.042799773359816e-05,
      "longitude_deg": 9.698046037985458,
      "height_km": 484.45036016608776,
      "semi_major_axis_km": 6862.413012694026,
      "eccentricity": 0.00013995,
      "inclination_deg": 43.0006,
      "raan_deg": 12.8357,
      "arg_perigee_deg": 245.5371,
      "mean_anomaly_deg": 114.5335,
      "mean_motion_rev_day": 15.27170349
    },
    {
      "epoch": "2026-04-21T20:00:01.999008Z",
      "apogee_km": 483.80363918439434,
      "perigee_km": 482.28868994165805,
      "latitude_deg": 7.940878305732969,
      "longitude_deg": 26.44729017290918,
      "height_km": 482.0800280310254,
      "semi_major_axis_km": 6861.1831645630255,
      "eccentricity": 0.0001104,
      "inclination_deg": 43.0014,
      "raan_deg": 4.9137,
      "arg_perigee_deg": 253.7914,
      "mean_anomaly_deg": 274.5201,
      "mean_motion_rev_day": 15.27580979
    },
    {
      "epoch": "2026-04-22T16:00:00.999072Z",
      "apogee_km": 483.9768930394657,
      "perigee_km": 482.2259050000366,
      "latitude_deg": 41.6625283062094,
      "longitude_deg": -18.923025935853275,
      "height_km": 486.79271656919065,
      "semi_major_axis_km": 6861.238399019751,
      "eccentricity": 0.0001276,
      "inclination_deg": 43.0012,
      "raan_deg": 0.2057,
      "arg_perigee_deg": 248.4733,
      "mean_anomaly_deg": 187.8699,
      "mean_motion_rev_day": 15.27562533
    },
    {
      "epoch": "2026-04-23T14:00:04.000032Z",
      "apogee_km": 484.0478346569016,
      "perigee_km": 482.1255942210646,
      "latitude_deg": 42.8105785076675,
      "longitude_deg": 14.446283837530734,
      "height_km": 487.1103856170025,
      "semi_major_axis_km": 6861.223714438983,
      "eccentricity": 0.00014008,
      "inclination_deg": 43.0013,
      "raan_deg": 355.0281,
      "arg_perigee_deg": 254.1454,
      "mean_anomaly_deg": 189.3037,
      "mean_motion_rev_day": 15.27567437
    },
    {
      "epoch": "2026-04-24T08:28:07.400352Z",
      "apogee_km": 483.71803664953586,
      "perigee_km": 482.3485470592814,
      "latitude_deg": -5.216731428613294e-05,
      "longitude_deg": 11.263044020668632,
      "height_km": 482.74770616461416,
      "semi_major_axis_km": 6861.170291854408,
      "eccentricity": 9.98e-05,
      "inclination_deg": 43.0039,
      "raan_deg": 350.6809,
      "arg_perigee_deg": 275.2276,
      "mean_anomaly_deg": 84.8461,
      "mean_motion_rev_day": 15.27585278
    },
    {
      "epoch": "2026-04-25T08:00:27.882720Z",
      "apogee_km": 484.14186980901195,
      "perigee_km": 481.9174795730769,
      "latitude_deg": 5.4303870881209405e-06,
      "longitude_deg": 11.67394831493275,
      "height_km": 482.81679133869784,
      "semi_major_axis_km": 6861.166674691044,
      "eccentricity": 0.0001621,
      "inclination_deg": 43.0042,
      "raan_deg": 345.1438,
      "arg_perigee_deg": 269.4967,
      "mean_anomaly_deg": 90.5699,
      "mean_motion_rev_day": 15.27586486
    },
    {
      "epoch": "2026-04-26T07:32:48.555168Z",
      "apogee_km": 484.0605738667273,
      "perigee_km": 481.9926191587383,
      "latitude_deg": -1.1998674537541816e-05,
      "longitude_deg": 12.082679178647425,
      "height_km": 482.8552082029669,
      "semi_major_axis_km": 6861.1635965127325,
      "eccentricity": 0.0001507,
      "inclination_deg": 43.0026,
      "raan_deg": 339.6054,
      "arg_perigee_deg": 267.1428,
      "mean_anomaly_deg": 92.9251,
      "mean_motion_rev_day": 15.27587514
    }
  ]
}